[{"OBJECT_NAME":"ONEWEB-0421","OBJECT_ID":"2021-132AD","EPOCH":"2026-03-16T03:22:53.287392","MEAN_MOTION":13.18685323,"ECCENTRICITY":0.00015156,"INCLINATION":87.9251,"RA_OF_ASC_NODE":353.9401,"ARG_OF_PERICENTER":82.1461,"MEAN_ANOMALY":277.9843,"EPHEMERIS_TYPE":0,"CLASSIFICATION_TYPE":"U","NORAD_CAT_ID":50496,"ELEMENT_SET_NO":999,"REV_AT_EPOCH":20935,"BSTAR":-0.00014276107,"MEAN_MOTION_DOT":-4.3e-7,"MEAN_MOTION_DDOT":0},{"OBJECT_NAME":"ONEWEB-0424","OBJECT_ID":"2021-132AE","EPOCH":"2026-03-16T04:15:08.795232","MEAN_MOTION":13.18686637,"ECCENTRICITY":0.00020773,"INCLINATION":87.9249,"RA_OF_ASC_NODE":353.9282,"ARG_OF_PERICENTER":72.0774,"MEAN_ANOMALY":288.0585,"EPHEMERIS_TYPE":0,"CLASSIFICATION_TYPE":"U","NORAD_CAT_ID":50497,"ELEMENT_SET_NO":999,"REV_AT_EPOCH":20938,"BSTAR":7.341153e-5,"MEAN_MOTION_DOT":4.2e-7,"MEAN_MOTION_DDOT":0},{"OBJECT_NAME":"ONEWEB-0426","OBJECT_ID":"2021-132AF","EPOCH":"2026-03-16T03:18:06.747840","MEAN_MOTION":13.1868444,"ECCENTRICITY":0.00011429,"INCLINATION":87.9252,"RA_OF_ASC_NODE":353.9282,"ARG_OF_PERICENTER":68.8656,"MEAN_ANOMALY":291.2598,"EPHEMERIS_TYPE":0,"CLASSIFICATION_TYPE":"U","NORAD_CAT_ID":50498,"ELEMENT_SET_NO":999,"REV_AT_EPOCH":20932,"BSTAR":-7.594029e-5,"MEAN_MOTION_DOT":-1.7e-7,"MEAN_MOTION_DDOT":0},{"OBJECT_NAME":"ONEWEB-0427","OBJECT_ID":"2021-132AG","EPOCH":"2026-03-16T04:12:44.785440","MEAN_MOTION":13.18685686,"ECCENTRICITY":0.00017093,"INCLINATION":87.9253,"RA_OF_ASC_NODE":353.9069,"ARG_OF_PERICENTER":70.0854,"MEAN_ANOMALY":290.0462,"EPHEMERIS_TYPE":0,"CLASSIFICATION_TYPE":"U","NORAD_CAT_ID":50499,"ELEMENT_SET_NO":999,"REV_AT_EPOCH":20935,"BSTAR":0.00011005781,"MEAN_MOTION_DOT":5.6e-7,"MEAN_MOTION_DDOT":0},{"OBJECT_NAME":"ONEWEB-0429","OBJECT_ID":"2021-132AH","EPOCH":"2026-03-16T03:53:46.055040","MEAN_MOTION":13.18686399,"ECCENTRICITY":0.00018982,"INCLINATION":87.9248,"RA_OF_ASC_NODE":353.9419,"ARG_OF_PERICENTER":82.2515,"MEAN_ANOMALY":277.8833,"EPHEMERIS_TYPE":0,"CLASSIFICATION_TYPE":"U","NORAD_CAT_ID":50500,"ELEMENT_SET_NO":999,"REV_AT_EPOCH":20932,"BSTAR":7.2503382e-5,"MEAN_MOTION_DOT":4.1e-7,"MEAN_MOTION_DDOT":0},{"OBJECT_NAME":"ONEWEB-0430","OBJECT_ID":"2021-132AJ","EPOCH":"2026-03-15T23:58:35.972544","MEAN_MOTION":13.1868727,"ECCENTRICITY":0.00020789,"INCLINATION":87.9254,"RA_OF_ASC_NODE":353.9719,"ARG_OF_PERICENTER":78.7524,"MEAN_ANOMALY":281.3842,"EPHEMERIS_TYPE":0,"CLASSIFICATION_TYPE":"U","NORAD_CAT_ID":50501,"ELEMENT_SET_NO":999,"REV_AT_EPOCH":20934,"BSTAR":-0.00031379214,"MEAN_MOTION_DOT":-1.11e-6,"MEAN_MOTION_DDOT":0},{"OBJECT_NAME":"ONEWEB-0432","OBJECT_ID":"2021-132AK","EPOCH":"2026-03-16T04:25:14.568096","MEAN_MOTION":13.18645538,"ECCENTRICITY":0.00021401,"INCLINATION":87.9252,"RA_OF_ASC_NODE":353.9035,"ARG_OF_PERICENTER":59.446,"MEAN_ANOMALY":300.6883,"EPHEMERIS_TYPE":0,"CLASSIFICATION_TYPE":"U","NORAD_CAT_ID":50502,"ELEMENT_SET_NO":999,"REV_AT_EPOCH":20932,"BSTAR":0.00013408767,"MEAN_MOTION_DOT":6.6e-7,"MEAN_MOTION_DDOT":0},{"OBJECT_NAME":"ONEWEB-0440","OBJECT_ID":"2021-132AL","EPOCH":"2026-03-16T04:05:38.574240","MEAN_MOTION":13.18686896,"ECCENTRICITY":0.00016754,"INCLINATION":87.9254,"RA_OF_ASC_NODE":353.9273,"ARG_OF_PERICENTER":91.2604,"MEAN_ANOMALY":268.872,"EPHEMERIS_TYPE":0,"CLASSIFICATION_TYPE":"U","NORAD_CAT_ID":50503,"ELEMENT_SET_NO":999,"REV_AT_EPOCH":20931,"BSTAR":0.0002936591,"MEAN_MOTION_DOT":1.29e-6,"MEAN_MOTION_DDOT":0},{"OBJECT_NAME":"ONEWEB-0450","OBJECT_ID":"2021-132AM","EPOCH":"2026-03-16T03:56:20.535648","MEAN_MOTION":13.18687169,"ECCENTRICITY":0.00020299,"INCLINATION":87.9244,"RA_OF_ASC_NODE":353.9433,"ARG_OF_PERICENTER":84.0033,"MEAN_ANOMALY":276.133,"EPHEMERIS_TYPE":0,"CLASSIFICATION_TYPE":"U","NORAD_CAT_ID":50504,"ELEMENT_SET_NO":999,"REV_AT_EPOCH":20934,"BSTAR":9.2592588e-5,"MEAN_MOTION_DOT":4.9e-7,"MEAN_MOTION_DDOT":0},{"OBJECT_NAME":"ONEWEB-0410","OBJECT_ID":"2022-012A","EPOCH":"2026-03-16T02:52:08.787360","MEAN_MOTION":13.17649386,"ECCENTRICITY":0.00013412,"INCLINATION":87.9171,"RA_OF_ASC_NODE":24.3284,"ARG_OF_PERICENTER":31.7908,"MEAN_ANOMALY":328.3304,"EPHEMERIS_TYPE":0,"CLASSIFICATION_TYPE":"U","NORAD_CAT_ID":51622,"ELEMENT_SET_NO":999,"REV_AT_EPOCH":20144,"BSTAR":-0.00025066166,"MEAN_MOTION_DOT":-8.4e-7,"MEAN_MOTION_DDOT":0},{"OBJECT_NAME":"ONEWEB-0411","OBJECT_ID":"2022-012B","EPOCH":"2026-03-16T05:43:39.756576","MEAN_MOTION":13.10371718,"ECCENTRICITY":0.00024617,"INCLINATION":87.8783,"RA_OF_ASC_NODE":54.765,"ARG_OF_PERICENTER":83.361,"MEAN_ANOMALY":276.7797,"EPHEMERIS_TYPE":0,"CLASSIFICATION_TYPE":"U","NORAD_CAT_ID":51623,"ELEMENT_SET_NO":999,"REV_AT_EPOCH":19711,"BSTAR":0.0018596042,"MEAN_MOTION_DOT":6.62e-6,"MEAN_MOTION_DDOT":0},{"OBJECT_NAME":"ONEWEB-0415","OBJECT_ID":"2022-012C","EPOCH":"2026-03-16T05:38:52.704672","MEAN_MOTION":13.10374432,"ECCENTRICITY":0.00022163,"INCLINATION":87.8782,"RA_OF_ASC_NODE":54.7684,"ARG_OF_PERICENTER":81.1629,"MEAN_ANOMALY":278.9749,"EPHEMERIS_TYPE":0,"CLASSIFICATION_TYPE":"U","NORAD_CAT_ID":51624,"ELEMENT_SET_NO":999,"REV_AT_EPOCH":19711,"BSTAR":0.0022995637,"MEAN_MOTION_DOT":8.15e-6,"MEAN_MOTION_DDOT":0},{"OBJECT_NAME":"ONEWEB-0416","OBJECT_ID":"2022-012D","EPOCH":"2026-03-16T04:05:39.198048","MEAN_MOTION":13.10370356,"ECCENTRICITY":0.00021815,"INCLINATION":87.878,"RA_OF_ASC_NODE":54.8023,"ARG_OF_PERICENTER":74.738,"MEAN_ANOMALY":285.3988,"EPHEMERIS_TYPE":0,"CLASSIFICATION_TYPE":"U","NORAD_CAT_ID":51625,"ELEMENT_SET_NO":999,"REV_AT_EPOCH":19714,"BSTAR":0.0012451072,"MEAN_MOTION_DOT":4.47e-6,"MEAN_MOTION_DDOT":0},{"OBJECT_NAME":"ONEWEB-0422","OBJECT_ID":"2022-012E","EPOCH":"2026-03-15T21:38:40.990848","MEAN_MOTION":13.17648967,"ECCENTRICITY":0.00020608,"INCLINATION":87.917,"RA_OF_ASC_NODE":24.3748,"ARG_OF_PERICENTER":99.247,"MEAN_ANOMALY":260.8895,"EPHEMERIS_TYPE":0,"CLASSIFICATION_TYPE":"U","NORAD_CAT_ID":51626,"ELEMENT_SET_NO":999,"REV_AT_EPOCH":20152,"BSTAR":-2.20984e-7,"MEAN_MOTION_DOT":1.3e-7,"MEAN_MOTION_DDOT":0},{"OBJECT_NAME":"ONEWEB-0423","OBJECT_ID":"2022-012F","EPOCH":"2026-03-15T21:28:57.116928","MEAN_MOTION":13.1764804,"ECCENTRICITY":0.00018095,"INCLINATION":87.9166,"RA_OF_ASC_NODE":24.385,"ARG_OF_PERICENTER":82.8952,"MEAN_ANOMALY":277.2385,"EPHEMERIS_TYPE":0,"CLASSIFICATION_TYPE":"U","NORAD_CAT_ID":51627,"ELEMENT_SET_NO":999,"REV_AT_EPOCH":20141,"BSTAR":1.3052279e-5,"MEAN_MOTION_DOT":1.8e-7,"MEAN_MOTION_DDOT":0},{"OBJECT_NAME":"ONEWEB-0425","OBJECT_ID":"2022-012G","EPOCH":"2026-03-16T04:19:58.779552","MEAN_MOTION":13.10369593,"ECCENTRICITY":0.00015568,"INCLINATION":87.8787,"RA_OF_ASC_NODE":54.778,"ARG_OF_PERICENTER":80.2198,"MEAN_ANOMALY":279.9105,"EPHEMERIS_TYPE":0,"CLASSIFICATION_TYPE":"U","NORAD_CAT_ID":51628,"ELEMENT_SET_NO":999,"REV_AT_EPOCH":19714,"BSTAR":-0.00032578784,"MEAN_MOTION_DOT":-1.01e-6,"MEAN_MOTION_DDOT":0},{"OBJECT_NAME":"ONEWEB-0428","OBJECT_ID":"2022-012H","EPOCH":"2026-03-16T05:41:16.253088","MEAN_MOTION":13.10372344,"ECCENTRICITY":0.00018646,"INCLINATION":87.8783,"RA_OF_ASC_NODE":54.7793,"ARG_OF_PERICENTER":85.881,"MEAN_ANOMALY":274.253,"EPHEMERIS_TYPE":0,"CLASSIFICATION_TYPE":"U","NORAD_CAT_ID":51629,"ELEMENT_SET_NO":999,"REV_AT_EPOCH":19711,"BSTAR":0.0017784498,"MEAN_MOTION_DOT":6.34e-6,"MEAN_MOTION_DDOT":0}]
