ONEWEB-0421             
1 50496U 21132AD  26075.14089453 -.00000043  00000+0 -14276-3 0  9998
2 50496  87.9251 353.9401 0001515  82.1461 277.9843 13.18685323209356
ONEWEB-0424             
1 50497U 21132AE  26075.17718513  .00000042  00000+0  73412-4 0  9993
2 50497  87.9249 353.9282 0002077  72.0774 288.0585 13.18686637209388
ONEWEB-0426             
1 50498U 21132AF  26075.13757810 -.00000017  00000+0 -75940-4 0  9995
2 50498  87.9252 353.9282 0001142  68.8656 291.2598 13.18684440209321
ONEWEB-0427             
1 50499U 21132AG  26075.17551835  .00000056  00000+0  11006-3 0  9992
2 50499  87.9253 353.9069 0001709  70.0854 290.0462 13.18685686209353
ONEWEB-0429             
1 50500U 21132AH  26075.16233860  .00000041  00000+0  72503-4 0  9993
2 50500  87.9248 353.9419 0001898  82.2515 277.8833 13.18686399209321
ONEWEB-0430             
1 50501U 21132AJ  26074.99902746 -.00000111  00000+0 -31379-3 0  9995
2 50501  87.9254 353.9719 0002078  78.7524 281.3842 13.18687270209344
ONEWEB-0432             
1 50502U 21132AK  26075.18419639  .00000066  00000+0  13409-3 0  9993
2 50502  87.9252 353.9035 0002140  59.4460 300.6883 13.18645538209328
ONEWEB-0440             
1 50503U 21132AL  26075.17058535  .00000129  00000+0  29366-3 0  9996
2 50503  87.9254 353.9273 0001675  91.2604 268.8720 13.18686896209317
ONEWEB-0450             
1 50504U 21132AM  26075.16412657  .00000049  00000+0  92593-4 0  9999
2 50504  87.9244 353.9433 0002029  84.0033 276.1330 13.18687169209341
ONEWEB-0410             
1 51622U 22012A   26075.11954615 -.00000084  00000+0 -25066-3 0  9990
2 51622  87.9171  24.3284 0001341  31.7908 328.3304 13.17649386201443
ONEWEB-0411             
1 51623U 22012B   26075.23865459  .00000662  00000+0  18596-2 0  9990
2 51623  87.8783  54.7650 0002461  83.3610 276.7797 13.10371718197117
ONEWEB-0415             
1 51624U 22012C   26075.23533223  .00000815  00000+0  22996-2 0  9991
2 51624  87.8782  54.7684 0002216  81.1629 278.9749 13.10374432197115
ONEWEB-0416             
1 51625U 22012D   26075.17059257  .00000447  00000+0  12451-2 0  9991
2 51625  87.8780  54.8023 0002181  74.7380 285.3988 13.10370356197146
ONEWEB-0422             
1 51626U 22012E   26074.90186332  .00000013  00000+0 -22098-6 0  9999
2 51626  87.9170  24.3748 0002060  99.2470 260.8895 13.17648967201521
ONEWEB-0423             
1 51627U 22012F   26074.89510552  .00000018  00000+0  13052-4 0  9995
2 51627  87.9166  24.3850 0001809  82.8952 277.2385 13.17648040201410
ONEWEB-0425             
1 51628U 22012G   26075.18054143 -.00000101  00000+0 -32579-3 0  9997
2 51628  87.8787  54.7780 0001556  80.2198 279.9105 13.10369593197140
ONEWEB-0428             
1 51629U 22012H   26075.23699367  .00000634  00000+0  17784-2 0  9996
2 51629  87.8783  54.7793 0001864  85.8810 274.2530 13.10372344197110
